{
    "links": {
        "self": "http://www.neowsapp.com/rest/v1/neo/3893857?api_key=iIulBulltgU6a56xZRHN4H3l9WmuAYTsLGpBGhQ2"
    },
    "id": "3893857",
    "neo_reference_id": "3893857",
    "name": "(2019 XM)",
    "designation": "2019 XM",
    "nasa_jpl_url": "http://ssd.jpl.nasa.gov/sbdb.cgi?sstr=3893857",
    "absolute_magnitude_h": 28.1,
    "estimated_diameter": {
        "kilometers": {
            "estimated_diameter_min": 0.0063760979,
            "estimated_diameter_max": 0.0142573883
        },
        "meters": {
            "estimated_diameter_min": 6.3760978988,
            "estimated_diameter_max": 14.2573883328
        },
        "miles": {
            "estimated_diameter_min": 0.0039619223,
            "estimated_diameter_max": 0.0088591276
        },
        "feet": {
            "estimated_diameter_min": 20.9189570301,
            "estimated_diameter_max": 46.7762099378
        }
    },
    "is_potentially_hazardous_asteroid": false,
    "close_approach_data": [
        {
            "close_approach_date": "2019-11-30",
            "close_approach_date_full": "2019-Nov-30 01:40",
            "epoch_date_close_approach": 1575078000000,
            "relative_velocity": {
                "kilometers_per_second": "12.2520576235",
                "kilometers_per_hour": "44107.4074445874",
                "miles_per_hour": "27406.6276979993"
            },
            "miss_distance": {
                "astronomical": "0.0133057256",
                "lunar": "5.1759272584",
                "kilometers": "1990508.208564472",
                "miles": "1236844.4475628336"
            },
            "orbiting_body": "Earth"
        },
        {
            "close_approach_date": "2021-12-12",
            "close_approach_date_full": "2021-Dec-12 17:00",
            "epoch_date_close_approach": 1639328400000,
            "relative_velocity": {
                "kilometers_per_second": "17.8706569817",
                "kilometers_per_hour": "64334.3651341801",
                "miles_per_hour": "39974.8726024021"
            },
            "miss_distance": {
                "astronomical": "0.2012254415",
                "lunar": "78.2766967435",
                "kilometers": "30102897.438209605",
                "miles": "18705073.102338349"
            },
            "orbiting_body": "Earth"
        },
        {
            "close_approach_date": "2090-12-28",
            "close_approach_date_full": "2090-Dec-28 01:50",
            "epoch_date_close_approach": 3818109000000,
            "relative_velocity": {
                "kilometers_per_second": "26.3177117312",
                "kilometers_per_hour": "94743.7622323578",
                "miles_per_hour": "58870.0893715448"
            },
            "miss_distance": {
                "astronomical": "0.4882646093",
                "lunar": "189.9349330177",
                "kilometers": "73043345.547662191",
                "miles": "45387030.2987565958"
            },
            "orbiting_body": "Earth"
        }
    ],
    "orbital_data": {
        "orbit_id": "1",
        "orbit_determination_date": "2019-12-03 15:42:43",
        "first_observation_date": "2019-12-02",
        "last_observation_date": "2019-12-03",
        "data_arc_in_days": 1,
        "observations_used": 14,
        "orbit_uncertainty": "8",
        "minimum_orbit_intersection": ".0115577",
        "jupiter_tisserand_invariant": "4.214",
        "epoch_osculation": "2458820.5",
        "eccentricity": ".4706572725276534",
        "semi_major_axis": "1.604231226543782",
        "inclination": "7.722739793491892",
        "ascending_node_longitude": "251.2097245665333",
        "orbital_period": "742.1622758941891",
        "perihelion_distance": ".8491881329549933",
        "perihelion_argument": "118.9951188415523",
        "aphelion_distance": "2.35927432013257",
        "perihelion_time": "2458776.231923515115",
        "mean_anomaly": "21.47307678143248",
        "mean_motion": ".4850691172173316",
        "equinox": "J2000",
        "orbit_class": {
            "orbit_class_type": "APO",
            "orbit_class_description": "Near-Earth asteroid orbits which cross the Earth’s orbit similar to that of 1862 Apollo",
            "orbit_class_range": "a (semi-major axis) > 1.0 AU; q (perihelion) < 1.017 AU"
        }
    },
    "is_sentry_object": false
}